[{"OBJECT_NAME":"AFR-1","OBJECT_ID":"2023-084AJ","EPOCH":"2026-03-09T23:02:07.499328","MEAN_MOTION":15.27543824,"ECCENTRICITY":0.00099838,"INCLINATION":97.6099,"RA_OF_ASC_NODE":203.4313,"ARG_OF_PERICENTER":334.9676,"MEAN_ANOMALY":25.1077,"EPHEMERIS_TYPE":0,"CLASSIFICATION_TYPE":"U","NORAD_CAT_ID":56964,"ELEMENT_SET_NO":999,"REV_AT_EPOCH":15207,"BSTAR":0.00024843733,"MEAN_MOTION_DOT":6.624e-5,"MEAN_MOTION_DDOT":0},{"OBJECT_NAME":"STARLINK-34640","OBJECT_ID":"2025-167Q","EPOCH":"2026-03-09T05:00:29.304000","MEAN_MOTION":15.3018414,"ECCENTRICITY":0.00014422,"INCLINATION":53.1618,"RA_OF_ASC_NODE":29.0744,"ARG_OF_PERICENTER":60.4833,"MEAN_ANOMALY":299.6311,"EPHEMERIS_TYPE":0,"CLASSIFICATION_TYPE":"U","NORAD_CAT_ID":65092,"ELEMENT_SET_NO":999,"REV_AT_EPOCH":3340,"BSTAR":-0.00070455422,"MEAN_MOTION_DOT":-0.00021157,"MEAN_MOTION_DDOT":0}]
